366P/Spacewatch,e,8.8570,70.7238,153.0352,3.498014,0.1506509,0.34823264,296.8700,12/09.0/2023,2000,g 15.0,4.0
# From MPC112395
367P/Catalina,e,8.4597,58.6611,172.7614,3.509440,0.1499158,0.27977335,300.0603,12/09.0/2023,2000,g 17.5,2.0
# From MPC114610
368P/NEAT,e,15.4800,257.8798,118.9279,5.531646,0.0757570,0.62653446,144.6908,12/09.0/2023,2000,g 14.0,4.0
# From MPC114610
369P/Hill,e,10.3232,47.2988,13.1746,4.380287,0.1075104,0.55581999,201.9153,12/09.0/2023,2000,g 15.0,4.0
# From MPEC 2021-F20
370P/NEAT,e,19.4233,55.0819,356.7237,6.436326,0.0603597,0.61555321,121.0817,12/09.0/2023,2000,g 13.0,4.0
# From MPC114610
371P/LINEAR-Skiff,e,17.3839,67.2856,308.5511,4.180464,0.1153101,0.47703901,217.7975,12/09.0/2023,2000,g 16.0,4.0
# From MPEC 2020-K19
372P/McNaught,e,9.5082,27.5493,326.0095,4.509937,0.1029078,0.15202594,192.5763,12/09.0/2023,2000,g 13.5,4.0
# From MPEC 2021-F20
373P/Rinner,e,13.7705,231.9473,221.0372,3.799339,0.1330890,0.39342699,226.7755,12/09.0/2023,2000,g 14.5,4.0
# From MPC114610
374P/Larson,e,10.7671,7.9137,51.4783,4.971058,0.0889264,0.46372010,159.2580,12/09.0/2023,2000,g 14.0,4.0
# From MPEC 2021-F20
375P/Hill,e,17.3640,359.9142,119.3675,5.547628,0.0754298,0.65952707,136.7799,12/09.0/2023,2000,g 16.0,4.0
# From MPEC 2022-K19
376P/LONEOS,e,1.1666,312.9644,285.3713,5.758651,0.0713219,0.51446034,110.1116,12/09.0/2023,2000,g 12.5,4.0
# From MPEC 2022-N37
377P/Scotti,e,9.0241,226.0535,354.9208,6.699312,0.0568406,0.25108929,70.8719,12/09.0/2023,2000,g  9.5,4.0
# From MPEC 2023-X98
378P/McNaught,e,19.1101,93.8957,193.4690,6.302882,0.0622867,0.46605073,71.7376,12/09.0/2023,2000,g 12.0,4.0
# From MPC115889
379P/Spacewatch,e,12.4560,30.5889,183.9969,3.495841,0.1507914,0.34838035,238.3772,12/09.0/2023,2000,g 15.0,4.0
# From MPEC 2023-C45
380P/PANSTARRS,e,8.0137,128.7614,87.6803,4.415260,0.1062355,0.34025424,178.8049,12/09.0/2023,2000,g 12.5,4.0
# From MPEC 2021-J28
381P/LINEAR-Spacewatch,e,28.3685,173.2803,173.8369,7.141748,0.0516413,0.68140478,79.2274,12/09.0/2023,2000,g 17.5,2.0
# From MPEC 2022-Y15
382P/Larson,e,8.3186,172.7953,163.0760,6.007644,0.0669342,0.27520648,49.2613,12/09.0/2023,2000,g  8.0,4.0
# From MPEC 2022-OB6
383P/Christensen,e,12.3217,207.8491,133.7627,3.547670,0.1474991,0.59900095,221.9100,12/09.0/2023,2000,g 18.0,4.0
# From MPEC 2022-OB6
384P/Kowalski,e,7.2831,354.2063,37.6916,2.898833,0.1996960,0.61630886,303.0602,12/09.0/2023,2000,g 19.5,4.0
# From MPEC 2021-F20
385P/Hill,e,16.8309,357.0763,44.3719,4.288634,0.1109751,0.40216141,171.3983,12/09.0/2023,2000,g 13.0,4.0
# From MPEC 2021-L04
386P/PANSTARRS,e,15.2372,134.9217,353.0818,4.051069,0.1208787,0.41683854,145.8599,12/09.0/2023,2000,g 14.5,4.0
# From MPEC 2021-J28
387P/Boattini,e,8.9330,259.2515,162.8095,4.796978,0.0938107,0.73705536,145.7102,12/09.0/2023,2000,g 15.0,4.0
# From MPEC 2021-S45
388P/Gibbs,e,23.8919,37.0336,42.3096,5.240608,0.0821545,0.61914041,131.2689,12/09.0/2023,2000,g 13.0,4.0
# From MPEC 2022-OB6
389P/Siding Spring,e,160.0872,218.8857,249.3964,5.633392,0.0737139,0.70484198,106.1251,12/09.0/2023,2000,g 16.0,4.0
# From MPEC 2022-OB6
390P/Gibbs,e,18.5536,152.3003,232.4055,5.813553,0.0703140,0.70732509,95.3546,12/09.0/2023,2000,g 12.0,4.0
# From MPEC 2021-F20
391P/Kowalski,e,21.2639,124.7931,187.2517,4.687161,0.0971268,0.11905177,202.9565,12/09.0/2023,2000,g  8.0,4.0
# From MPEC 2021-J28
392P/LINEAR,e,4.9324,24.8593,71.8831,6.140452,0.0647744,0.68360626,87.2057,12/09.0/2023,2000,g 14.5,4.0
# From MPEC 2023-T65
393P/Spacewatch-Hill,e,16.7876,36.3903,329.0989,4.795819,0.0938447,0.12011888,140.7029,12/09.0/2023,2000,g 11.0,4.0
# From MPEC 2020-KB7
394P/PANSTARRS,e,8.5299,98.1272,54.4074,4.328963,0.1094279,0.36764473,160.9259,12/09.0/2023,2000,g 16.0,2.4
# From MPEC 2023-VM5
395P/Catalina-NEAT,e,3.5650,221.0453,98.4032,7.121683,0.0518597,0.41585905,34.4767,12/09.0/2023,2000,g 10.0,4.0
# From MPEC 2020-KB7
396P/,e,5.4386,136.6327,8.3305,6.801750,0.0555614,0.41617845,86.9228,12/09.0/2023,2000,g 12.0,4.0
# From MPEC 2022-OB6
397P/Lemmon,e,10.9273,8.2275,14.5412,3.830910,0.1314471,0.40515672,166.5238,12/09.0/2023,2000,g 12.0,4.0
# From MPEC 2021-L04
398P/Boattini,e,11.0202,320.1604,127.4845,3.125835,0.1783426,0.58345409,192.0090,12/09.0/2023,2000,g 15.5,4.0
# From MPEC 2023-X98
399P/PANSTARRS,e,13.3221,207.1307,214.3797,3.792750,0.1334359,0.44743488,124.0806,12/09.0/2023,2000,g 14.0,4.0
# From MPEC 2022-ED3
400P/PANSTARRS,e,10.9305,176.4100,238.8384,3.561847,0.1466193,0.40971353,151.1959,12/09.0/2023,2000,g 15.5,2.8
# From MPEC 2022-K19
401P/McNaught,e,12.8021,359.8983,309.4354,5.777969,0.0709645,0.57895808,103.9027,12/09.0/2023,2000,g 12.5,4.0
# From MPEC 2023-M14
402P/LINEAR,e,30.8355,123.0779,326.8216,7.031541,0.0528601,0.43985381,38.2602,12/09.0/2023,2000,g 11.2,4.0
# From MPEC 2021-J28
403P/Catalina,e,12.3264,277.5884,163.8726,5.429788,0.0778986,0.50420473,91.7604,12/09.0/2023,2000,g 12.0,4.0
# From MPEC 2023-X98
404P/Bressi,e,9.7960,260.0366,169.3932,4.734171,0.0956837,0.12705710,3.3179,12/09.0/2023,2000,g 10.0,4.0
# From MPEC 2021-L04
405P/Lemmon,e,9.3730,112.1900,3.2948,3.605113,0.1439878,0.68969452,155.4208,12/09.0/2023,2000,g 17.5,4.0
# From MPEC 2021-F20
406P/Gibbs,e,1.2116,352.4201,11.5304,3.577945,0.1456309,0.54171726,171.7037,12/09.0/2023,2000,g 17.0,4.0
# From MPEC 2022-YN2
407P/PANSTARRS-Fuls,e,4.8752,80.2682,93.5373,3.482832,0.1516370,0.37762907,214.4794,12/09.0/2023,2000,g 14.0,4.0
# From MPEC 2023-X98
408P/Novichonok-Gerke,e,19.3568,189.4423,226.5508,4.742852,0.0954212,0.26872570,40.9778,12/09.0/2023,2000,g 11.0,4.0
# From MPEC 2022-ED3
409P/LONEOS-Hill,e,17.1295,143.6528,15.0646,6.034988,0.0664798,0.70975125,69.4702,12/09.0/2023,2000,g 14.0,4.0
# From MPEC 2022-M21
410P/NEAT-LINEAR,e,9.3897,139.9804,313.1274,6.646010,0.0575258,0.51152891,51.6554,12/09.0/2023,2000,g 12.5,4.0
# From MPEC 2021-J28
411P/Christensen,e,12.3876,77.6522,46.5632,5.811511,0.0703510,0.58122847,73.7562,12/09.0/2023,2000,g 13.5,4.0
# From MPEC 2021-F20
412P/WISE,e,8.9311,0.8455,155.9106,3.110419,0.1796701,0.47893979,197.5789,12/09.0/2023,2000,g 17.0,4.0
# From MPEC 2022-OB6
413P/Larson,e,15.9856,39.2211,186.5017,3.729175,0.1368627,0.42074049,119.3758,12/09.0/2023,2000,g 14.0,4.0
# From MPEC 2021-BE3
414P/STEREO,e,23.4052,257.8146,210.6856,2.793010,0.2111521,0.81201537,221.1881,12/09.0/2023,2000,g 19.0,4.0
# From MPEC 2022-J42
415P/Tenagra,e,31.7946,160.2760,345.9077,4.110373,0.1182721,0.19493993,121.6442,12/09.0/2023,2000,g 12.0,4.0
# From MPEC 2021-L04
416P/Scotti,e,3.3615,355.7782,134.4033,4.008290,0.1228189,0.45479283,126.0689,12/09.0/2023,2000,g 15.5,4.0
# From MPEC 2021-W31
417P/NEOWISE,e,8.1478,127.1126,112.8651,3.321466,0.1628206,0.56519609,155.6069,12/09.0/2023,2000,g 16.5,4.0
# From MPEC 2022-TA0
418P/LINEAR,e,5.7802,277.6733,307.3503,5.095349,0.0856926,0.66398073,67.0911,12/09.0/2023,2000,g 13.0,4.0
# From MPEC 2023-UR6
419P/PANSTARRS,e,2.8023,40.4001,187.8072,3.525500,0.1488926,0.27666888,114.9629,12/09.0/2023,2000,g 12.5,4.0
# From MPEC 2023-VM5
420P/Hill,e,14.4867,173.8489,156.6306,5.511931,0.0761638,0.49571731,43.2215,12/09.0/2023,2000,g 11.5,4.0
# From MPEC 2021-W31
421P/McNaught,e,10.0758,55.3316,259.8991,5.076559,0.0861688,0.67484617,90.2861,12/09.0/2023,2000,g 14.0,4.0
# From MPEC 2022-X67
422P/Christensen,e,39.5849,36.0277,304.8780,6.286623,0.0625285,0.50662532,43.5044,12/09.0/2023,2000,g 11.0,4.0
# From MPEC 2023-FK0
423P/Lemmon,e,8.3461,33.2961,80.4467,6.174577,0.0642382,0.12225158,51.9994,12/09.0/2023,2000,g  8.0,4.0
# From MPEC 2022-CN4
424P/LaSagra,e,8.6831,51.1915,312.5384,4.418711,0.1061111,0.69107882,81.5380,12/09.0/2023,2000,g 17.0,4.0
# From MPEC 2023-BF4
425P/Kowalski,e,16.4210,210.0735,200.8804,6.343896,0.0616836,0.54404046,49.9044,12/09.0/2023,2000,g 12.0,4.0
# From MPEC 2023-X98
426P/PANSTARRS,e,17.7727,280.4071,118.7186,3.189856,0.1730006,0.16181063,15.2490,12/09.0/2023,2000,g 13.5,4.0
# From MPEC 2023-J29
428P/Gibbs,e,8.5075,299.3337,36.8952,3.486771,0.1513801,0.51889486,142.0916,12/09.0/2023,2000,g 15.0,4.0
# From MPEC 2022-H04
429P/LINEAR-Hill,e,7.5186,322.0986,75.5986,3.553934,0.1471093,0.49137634,103.8127,12/09.0/2023,2000,g 15.5,4.0
# From MPEC 2022-L66
430P/Scotti,e,4.4753,54.6729,94.4273,3.104495,0.1801846,0.49972513,132.7639,12/09.0/2023,2000,g 16.5,4.0
# From MPEC 2023-D72
431P/Scotti,e,22.3921,202.8424,199.9434,3.475307,0.1521298,0.47777799,100.9313,12/09.0/2023,2000,g 14.0,4.0
# From MPEC 2021-U31
432P/PANSTARRS,e,10.0682,239.1316,105.3192,3.036580,0.1862631,0.24148419,154.7477,12/09.0/2023,2000,g 17.0,4.0
# From MPEC 2022-OB6
434P/Tenagra,e,6.3368,289.0115,128.1956,4.132793,0.1173110,0.27473985,90.7136,12/09.0/2023,2000,g 13.0,4.0
# From MPEC 2021-W31
435P/PANSTARRS,e,18.8757,98.5395,244.2394,3.019994,0.1877997,0.31817945,162.3927,12/09.0/2023,2000,g 17.0,4.0
# From MPEC 2022-X67
436P/Garradd,e,20.2025,87.1732,282.6873,5.934093,0.0681824,0.66970021,49.8080,12/09.0/2023,2000,g 14.5,4.0
# From MPEC 2023-B57
437P/Lemmon-PANSTARRS,e,3.6888,245.8475,206.8509,4.564389,0.1010718,0.25493691,48.1967,12/09.0/2023,2000,g 13.0,4.0
# From MPEC 2021-W47
438P/Christensen,e,8.2816,260.1223,59.0398,3.850155,0.1304628,0.41479541,175.2826,12/09.0/2023,2000,g 14.5,4.0
# From MPEC 2022-C56
439P/LINEAR,e,7.1137,56.4340,342.0645,3.490427,0.1511423,0.46957465,126.1477,12/09.0/2023,2000,g 13.5,4.0
# From MPEC 2022-WQ9
440P/Kobayashi,e,12.3407,328.8541,183.2869,8.577233,0.0392359,0.76046687,24.2899,12/09.0/2023,2000,g 15.5,4.0
# From MPEC 2022-X67
441P/PANSTARRS,e,2.5744,143.6071,178.8475,4.133985,0.1172602,0.19515044,284.9289,12/09.0/2023,2000,g 13.5,4.0
# From MPEC 2023-J29
442P/McNaught,e,6.0583,32.0092,310.7830,4.966642,0.0890451,0.53288357,42.5144,12/09.0/2023,2000,g 13.5,4.0
# From MPEC 2023-SQ0
443P/PANSTARRS-Christensen,e,19.8885,108.9436,145.1095,4.125796,0.1176095,0.28343964,49.9729,12/09.0/2023,2000,g 13.5,4.0
# From MPEC 2023-VM5
444P/WISE-PANSTARRS,e,22.1844,89.1201,171.3299,3.436371,0.1547227,0.57070027,79.8738,12/09.0/2023,2000,g 17.0,4.0
# From MPEC 2022-YB4
